SL-16 R/B               
1 19650U 88102B   25130.52190317  .00000055  00000+0  51807-4 0  9993
2 19650  70.9995  69.3593 0012269 116.6528 243.5853 14.16098604883970
INTERCOSMOS 24          
1 20261U 89080A   25130.45726837  .00000540  00000+0  16066-3 0  9999
2 20261  82.6038 301.5897 1189537 276.1831  70.5330 12.58977478628636
SL-14 R/B               
1 20262U 89080C   25130.37315937  .00000352  00000+0  98874-4 0  9995
2 20262  82.5965   7.9447 1231367 157.9571 207.9584 12.50278383622248
DELTA 1 R/B             
1 20323U 89089B   25130.43900786  .00000521  00000+0  13849-3 0  9997
2 20323  97.1088  20.5840 0069502   1.7507 358.3921 14.50369862851779
ARIANE 40 R/B           
1 20443U 90005H   25130.45652136  .00000412  00000+0  14549-3 0  9992
2 20443  98.3478 194.4035 0010866  43.1192 317.0846 14.39614532849177
DELTA 2 R/B(1)          
1 20453U 90008B   25129.99717527  .00026228  00000+0  62073-3 0  9997
2 20453  35.6095 323.0243 0144699  20.0196 340.6134 15.30620819879260
COSMOS 2058             
1 20465U 90010A   25130.31238329  .00003725  00000+0  23593-3 0  9990
2 20465  82.4815 345.4477 0009823 298.0149  62.0086 15.08657434896464
SL-14 R/B               
1 20466U 90010B   25130.40959904  .00000511  00000+0  59539-4 0  9990
2 20466  82.5040 192.1342 0019026 215.5904 144.4044 14.83232016883522
SL-14 R/B               
1 20511U 90018B   25130.47436313  .00000487  00000+0  58653-4 0  9998
2 20511  82.5197 146.4453 0016689  15.0833 345.0875 14.81815247877678
HST                     
1 20580U 90037B   25130.55044557  .00007049  00000+0  26686-3 0  9990
2 20580  28.4676 299.9570 0002778  38.2802 321.7989 15.24914098726937
SL-16 R/B               
1 20625U 90046B   25130.49419602  .00000146  00000+0  10022-3 0  9998
2 20625  70.9990 214.6447 0012710  39.1619 321.0421 14.14958585805500
COSMOS 2084             
1 20663U 90055A   25130.56987823  .00004239  00000+0  30974-3 0  9998
2 20663  62.7902 287.5739 0066845 150.7587 209.7281 15.03453396890711
SL-6 R/B(2)             
1 20666U 90055D   25130.58413459  .00002246  00000+0  18438-3 0  9999
2 20666  62.7838 203.0869 0032454 183.5809 176.5063 15.01885970892647
SL-8 R/B                
1 20775U 90078B   25130.44618130  .00014082  00000+0  47666-3 0  9999
2 20775  82.9079 161.3280 0403353 304.8393  51.5494 14.77624206764360
SL-8 R/B                
1 21088U 91006B   25130.53045634  .00000089  00000+0  73962-4 0  9993
2 21088  82.9455  35.5677 0022798 160.9142  13.0032 13.77449711722338
OKEAN-3                 
1 21397U 91039A   25130.47686140  .00003498  00000+0  26064-3 0  9995
2 21397  82.5165 270.0447 0013518 282.9306  77.0410 15.02562597819473
COSMOS 2151             
1 21422U 91042A   25130.43017188  .00002521  00000+0  20707-3 0  9998
2 21422  82.5004  15.7927 0012943  11.8107 348.3417 14.98733131817758
SL-14 R/B               
1 21423U 91042B   25130.46515238  .00000448  00000+0  54039-4 0  9993
2 21423  82.4912 144.4789 0017832 152.8187 207.3964 14.81514503808177
ERS-1                   
1 21574U 91050A   25130.45956679  .00000450  00000+0  15949-3 0  9995
2 21574  98.7923 136.0304 0032584  23.7617 336.5066 14.39173722772110
ARIANE 40 R/B           
1 21610U 91050F   25130.39852264  .00000451  00000+0  14860-3 0  9996
2 21610  98.2416 188.2683 0001776 271.3732  88.7255 14.42608910775261
INTERCOSMOS 25          
1 21819U 91086A   25130.56482493  .00002393  00000+0  46371-3 0  9997
2 21819  82.5988 133.1523 1492479  49.9239 322.3418 12.10870916459986
SL-8 R/B                
1 21876U 92008B   25130.49705010  .00000168  00000+0  15778-3 0  9995
2 21876  82.9240 133.2630 0033207 261.2273 209.8237 13.75925116667726
SL-8 R/B                
1 21938U 92020B   25130.45957025  .00000108  00000+0  96213-4 0  9997
2 21938  82.9336  18.9661 0030398  65.3136 109.7632 13.75499954659446
USA 81                  
1 21949U 92023A   25130.46067557  .00000225  00000+0  76323-4 0  9995
2 21949  85.0044 306.3559 0001175  83.1653 276.9674 14.32231874 51382
COSMOS 2219             
1 22219U 92076A   25130.47100335  .00000190  00000+0  12450-3 0  9998
2 22219  71.0605 291.8968 0019848 300.4026  59.5134 14.14027605675516
SL-16 R/B               
1 22220U 92076B   25130.40353895  .00000068  00000+0  58020-4 0  9992
2 22220  70.9983 107.2103 0013730 206.6554 266.4783 14.16802365678870
COSMOS 2221             
1 22236U 92080A   25130.45475309  .00002218  00000+0  20130-3 0  9993
2 22236  82.5068 209.1054 0016130 127.9273 232.3409 14.94762168735476
SL-16 R/B               
1 22285U 92093B   25130.48738154 -.00000233  00000+0 -94936-4 0  9997
2 22285  71.0213 280.7358 0002926  18.4135 341.7093 14.15392704670252
COSMOS 2228             
1 22286U 92094A   25130.45490746  .00002093  00000+0  18589-3 0  9991
2 22286  82.5182 167.2380 0017154 239.4825 120.4704 14.95583719730714
SL-16 R/B               
1 22566U 93016B   25130.42717906 -.00000286  00000+0 -12241-3 0  9997
2 22566  71.0050 132.0966 0008166  57.9359 302.2555 14.15253374659267
COSMOS 2242             
1 22626U 93024A   25130.45152051  .00002516  00000+0  22713-3 0  9991
2 22626  82.5214 196.3300 0015411 241.6218 118.3450 14.95046979735067
SL-16 R/B               
1 22803U 93059B   25130.46487874  .00000140  00000+0  93188-4 0  9997
2 22803  70.9899 290.5345 0018866 307.7730  52.1684 14.17171725636572
ARIANE 40 R/B           
1 22830U 93061H   25130.47001452  .00000304  00000+0  12765-3 0  9998
2 22830  98.5280 199.6402 0011976 101.3017 258.9513 14.32643814650681
COSMOS 2278             
1 23087U 94023A   25130.32444096 -.00000051  00000+0 -20497-5 0  9995
2 23087  71.0531  89.7501 0007104 145.0368 215.1222 14.14296259601913
SL-16 R/B               
1 23088U 94023B   25130.29988754  .00000001  00000+0  25120-4 0  9996
2 23088  71.0003 348.0066 0002486 357.9286   2.1826 14.14959995603173
SL-16 R/B               
1 23343U 94074B   25130.39234271  .00000640  00000+0  93246-4 0  9998
2 23343  97.7421 167.9619 0007914 122.2914 248.6923 14.79005183642417
SL-16 R/B               
1 23405U 94077B   25130.47046043 -.00000071  00000+0 -11961-4 0  9991
2 23405  70.9830 270.3740 0004940 268.2531  91.8026 14.15517819573328
ARIANE 40+ R/B          
1 23561U 95021B   25130.42885691  .00000397  00000+0  14129-3 0  9996
2 23561  98.4846 200.3514 0006100 340.3128  30.1050 14.39507796575615
SL-16 R/B               
1 23705U 95058B   25130.60365545 -.00000106  00000+0 -30075-4 0  9996
2 23705  71.0195  96.5534 0014269 228.3231 131.6672 14.15443241524968
SL-16 R/B               
1 24298U 96051B   25130.34033852 -.00000200  00000+0 -81809-4 0  9998
2 24298  70.7691  97.2131 0017585 228.5129 131.4482 14.12424496478813
ORBVIEW 2 (SEASTAR)     
1 24883U 97037A   25130.39258176  .00000330  00000+0  13155-3 0  9996
2 24883  98.8214 282.3690 0001572 205.7861 154.3245 14.35229433464962
SL-16 R/B               
1 25400U 98043G   25130.61587222  .00000068  00000+0  47282-4 0  9999
2 25400  98.7860  77.6207 0009985 167.5743 192.5684 14.25965098395791
SL-16 R/B               
1 25407U 98045B   25130.33919767 -.00000260  00000+0 -10706-3 0  9996
2 25407  71.0095  99.4842 0005812 142.5771 217.5758 14.16136746384156
ISS (ZARYA)             
1 25544U 98067A   25130.47784563  .00010091  00000+0  18811-3 0  9997
2 25544  51.6338 133.8645 0002317  95.1602 264.9651 15.49451152509312
CZ-4B R/B               
1 25732U 99025C   25130.59296801  .00000126  00000+0  81889-4 0  9991
2 25732  98.7024 176.3158 0038023 135.0439 349.8333 14.18183120345209
OKEAN-O                 
1 25860U 99039A   25130.43102304  .00000914  00000+0  12853-3 0  9994
2 25860  97.9858 187.6544 0001026 112.0587 248.0734 14.79748988389538
SL-16 R/B               
1 25861U 99039B   25130.16646445  .00000797  00000+0  10910-3 0  9995
2 25861  98.0386 183.9336 0015525 156.7180 203.4738 14.81235234391921
DELTA 2 R/B             
1 25876U 99041E   25130.25602206  .00000677  00000+0  14847-3 0  9991
2 25876  51.7629  71.9957 0507531 173.6294 187.1426 14.10672922320188
HELIOS 1B               
1 25977U 99064A   25130.42737245  .00001615  00000+0  18965-3 0  9997
2 25977  98.1997  18.6152 0001392  40.9413 319.1905 14.86386229640191
TERRA                   
1 25994U 99068A   25130.57160435  .00000558  00000+0  12384-3 0  9991
2 25994  98.0003 189.8085 0003556  73.4753  60.8386 14.60671634350825
SL-16 R/B               
1 26070U 00006B   25130.41747818  .00000184  00000+0  11805-3 0  9992
2 26070  71.0046  15.4832 0018703 281.7111  78.1914 14.15773968305636
TITAN 4B R/B            
1 26474U 00047B   25130.54488905  .00003013  00000+0  20581-3 0  9993
2 26474  67.9890 171.0496 0042285  14.9020 345.3363 15.06951893347209
ENVISAT                 
1 27386U 02009A   25130.52135499  .00000135  00000+0  57557-4 0  9997
2 27386  98.3315  87.1621 0001187  89.5318  26.2481 14.38909361215570
IDEFIX & ARIANE 42P R/B 
1 27422U 02021B   25130.57355507  .00000327  00000+0  14145-3 0  9999
2 27422  98.5599  68.4041 0012078   6.2167 353.9164 14.30772288200675
AQUA                    
1 27424U 02022A   25130.63616021  .00001115  00000+0  23610-3 0  9993
2 27424  98.3757  88.5220 0001794 104.4127  68.3985 14.61231129224462
CZ-4B R/B               
1 27432U 02024C   25130.39661729  .00000083  00000+0  65508-4 0  9998
2 27432  98.9262 179.5288 0050595 162.6634 208.6954 14.14479131186361
MIDORI II (ADEOS-II)    
1 27597U 02056A   25130.58331741  .00000389  00000+0  17151-3 0  9993
2 27597  98.7360  82.8278 0001684 118.7138 241.4213 14.29023922167003
H-2A R/B                
1 27601U 02056E   25130.46079826  .00000406  00000+0  15781-3 0  9996
2 27601  98.2770  98.2575 0070264 346.5863 121.7190 14.33487087170667
CZ-4B R/B               
1 28059U 03049C   25130.48941180  .00000516  00000+0  13056-3 0  9995
2 28059  98.6574 109.1757 0049700  77.3957 283.2790 14.54651596142513
